CCSDS_OMM_VERS = 2.0
CREATION_DATE  = 
ORIGINATOR     = 

OBJECT_NAME    = STARLINK-35908
OBJECT_ID      = 2025-271Y
CENTER_NAME    = EARTH
REF_FRAME      = TEME
TIME_SYSTEM    = UTC
MEAN_ELEMENT_THEORY = SGP/SGP4

EPOCH          = 2025-12-09T12:00:02.000160
MEAN_MOTION    = 15.64059678
ECCENTRICITY   = .0000805
INCLINATION    = 53.1590
RA_OF_ASC_NODE = 202.8103
ARG_OF_PERICENTER = 108.5827
MEAN_ANOMALY   = 213.0748

EPHEMERIS_TYPE = 0
CLASSIFICATION_TYPE = U
NORAD_CAT_ID   = 66639
ELEMENT_SET_NO = 999
REV_AT_EPOCH   = 372
BSTAR          = -.23333E-1
MEAN_MOTION_DOT = -.1980495E-1
MEAN_MOTION_DDOT = 0

CCSDS_OMM_VERS = 2.0
CREATION_DATE  = 
ORIGINATOR     = 

OBJECT_NAME    = STARLINK-35921
OBJECT_ID      = 2025-271Z
CENTER_NAME    = EARTH
REF_FRAME      = TEME
TIME_SYSTEM    = UTC
MEAN_ELEMENT_THEORY = SGP/SGP4

EPOCH          = 2025-12-09T12:00:02.000160
MEAN_MOTION    = 15.64051814
ECCENTRICITY   = .000084
INCLINATION    = 53.1590
RA_OF_ASC_NODE = 202.8061
ARG_OF_PERICENTER = 107.4946
MEAN_ANOMALY   = 216.0837

EPHEMERIS_TYPE = 0
CLASSIFICATION_TYPE = U
NORAD_CAT_ID   = 66640
ELEMENT_SET_NO = 999
REV_AT_EPOCH   = 372
BSTAR          = -.23202E-1
MEAN_MOTION_DOT = -.1970229E-1
MEAN_MOTION_DDOT = 0

CCSDS_OMM_VERS = 2.0
CREATION_DATE  = 
ORIGINATOR     = 

OBJECT_NAME    = STARLINK-35923
OBJECT_ID      = 2025-271AA
CENTER_NAME    = EARTH
REF_FRAME      = TEME
TIME_SYSTEM    = UTC
MEAN_ELEMENT_THEORY = SGP/SGP4

EPOCH          = 2025-12-09T12:00:02.000160
MEAN_MOTION    = 15.64053203
ECCENTRICITY   = .0000804
INCLINATION    = 53.1592
RA_OF_ASC_NODE = 202.7895
ARG_OF_PERICENTER = 109.3972
MEAN_ANOMALY   = 221.8464

EPHEMERIS_TYPE = 0
CLASSIFICATION_TYPE = U
NORAD_CAT_ID   = 66641
ELEMENT_SET_NO = 999
REV_AT_EPOCH   = 372
BSTAR          = -.23215E-1
MEAN_MOTION_DOT = -.1971216E-1
MEAN_MOTION_DDOT = 0

CCSDS_OMM_VERS = 2.0
CREATION_DATE  = 
ORIGINATOR     = 

OBJECT_NAME    = STARLINK-35926
OBJECT_ID      = 2025-271AB
CENTER_NAME    = EARTH
REF_FRAME      = TEME
TIME_SYSTEM    = UTC
MEAN_ELEMENT_THEORY = SGP/SGP4

EPOCH          = 2025-12-09T12:00:02.000160
MEAN_MOTION    = 15.64051521
ECCENTRICITY   = .0000659
INCLINATION    = 53.1591
RA_OF_ASC_NODE = 202.7944
ARG_OF_PERICENTER = 103.1663
MEAN_ANOMALY   = 226.1586

EPHEMERIS_TYPE = 0
CLASSIFICATION_TYPE = U
NORAD_CAT_ID   = 66642
ELEMENT_SET_NO = 999
REV_AT_EPOCH   = 348
BSTAR          = -.23161E-1
MEAN_MOTION_DOT = -.1966992E-1
MEAN_MOTION_DDOT = 0

CCSDS_OMM_VERS = 2.0
CREATION_DATE  = 
ORIGINATOR     = 

OBJECT_NAME    = STARLINK-35918
OBJECT_ID      = 2025-271AC
CENTER_NAME    = EARTH
REF_FRAME      = TEME
TIME_SYSTEM    = UTC
MEAN_ELEMENT_THEORY = SGP/SGP4

EPOCH          = 2025-12-09T12:00:02.000160
MEAN_MOTION    = 15.64050306
ECCENTRICITY   = .0000861
INCLINATION    = 53.1593
RA_OF_ASC_NODE = 202.8026
ARG_OF_PERICENTER = 108.4293
MEAN_ANOMALY   = 217.0648

EPHEMERIS_TYPE = 0
CLASSIFICATION_TYPE = U
NORAD_CAT_ID   = 66643
ELEMENT_SET_NO = 999
REV_AT_EPOCH   = 372
BSTAR          = -.2316E-1
MEAN_MOTION_DOT = -.1966949E-1
MEAN_MOTION_DDOT = 0

CCSDS_OMM_VERS = 2.0
CREATION_DATE  = 
ORIGINATOR     = 

OBJECT_NAME    = STARLINK-35938
OBJECT_ID      = 2025-271AD
CENTER_NAME    = EARTH
REF_FRAME      = TEME
TIME_SYSTEM    = UTC
MEAN_ELEMENT_THEORY = SGP/SGP4

EPOCH          = 2025-12-09T12:00:02.000160
MEAN_MOTION    = 15.64057013
ECCENTRICITY   = .0000827
INCLINATION    = 53.1589
RA_OF_ASC_NODE = 202.7983
ARG_OF_PERICENTER = 109.7679
MEAN_ANOMALY   = 217.6413

EPHEMERIS_TYPE = 0
CLASSIFICATION_TYPE = U
NORAD_CAT_ID   = 66644
ELEMENT_SET_NO = 999
REV_AT_EPOCH   = 372
BSTAR          = -.23294E-1
MEAN_MOTION_DOT = -.1977417E-1
MEAN_MOTION_DDOT = 0

CCSDS_OMM_VERS = 2.0
CREATION_DATE  = 
ORIGINATOR     = 

OBJECT_NAME    = SHENZHOU-22
OBJECT_ID      = 2025-272A
CENTER_NAME    = EARTH
REF_FRAME      = TEME
TIME_SYSTEM    = UTC
MEAN_ELEMENT_THEORY = SGP/SGP4

EPOCH          = 2025-12-09T04:35:44.551104
MEAN_MOTION    = 15.58940873
ECCENTRICITY   = .00089717
INCLINATION    = 41.4680
RA_OF_ASC_NODE = 38.2458
ARG_OF_PERICENTER = 2.1097
MEAN_ANOMALY   = 357.9778

EPHEMERIS_TYPE = 0
CLASSIFICATION_TYPE = U
NORAD_CAT_ID   = 66645
ELEMENT_SET_NO = 999
REV_AT_EPOCH   = 26300
BSTAR          = .38224086E-3
MEAN_MOTION_DOT = .30369E-3
MEAN_MOTION_DDOT = 0

CCSDS_OMM_VERS = 2.0
CREATION_DATE  = 
ORIGINATOR     = 

OBJECT_NAME    = COSMOS 2597 (RODNIK-S 22)
OBJECT_ID      = 2025-273A
CENTER_NAME    = EARTH
REF_FRAME      = TEME
TIME_SYSTEM    = UTC
MEAN_ELEMENT_THEORY = SGP/SGP4

EPOCH          = 2025-12-09T11:50:00.631104
MEAN_MOTION    = 12.41951240
ECCENTRICITY   = .000796
INCLINATION    = 82.4984
RA_OF_ASC_NODE = 288.4651
ARG_OF_PERICENTER = 296.9217
MEAN_ANOMALY   = 63.1048

EPHEMERIS_TYPE = 0
CLASSIFICATION_TYPE = U
NORAD_CAT_ID   = 66647
ELEMENT_SET_NO = 999
REV_AT_EPOCH   = 173
BSTAR          = .22199E-3
MEAN_MOTION_DOT = .4E-6
MEAN_MOTION_DDOT = 0

CCSDS_OMM_VERS = 2.0
CREATION_DATE  = 
ORIGINATOR     = 

OBJECT_NAME    = COSMOS 2598 (RODNIK-S 23)
OBJECT_ID      = 2025-273B
CENTER_NAME    = EARTH
REF_FRAME      = TEME
TIME_SYSTEM    = UTC
MEAN_ELEMENT_THEORY = SGP/SGP4

EPOCH          = 2025-12-09T11:42:43.537824
MEAN_MOTION    = 12.42861553
ECCENTRICITY   = .0007264
INCLINATION    = 82.5025
RA_OF_ASC_NODE = 288.4721
ARG_OF_PERICENTER = 259.0803
MEAN_ANOMALY   = 100.9459

EPHEMERIS_TYPE = 0
CLASSIFICATION_TYPE = U
NORAD_CAT_ID   = 66648
ELEMENT_SET_NO = 999
REV_AT_EPOCH   = 173
BSTAR          = -.83492E-4
MEAN_MOTION_DOT = -.2E-7
MEAN_MOTION_DDOT = 0

CCSDS_OMM_VERS = 2.0
CREATION_DATE  = 
ORIGINATOR     = 

OBJECT_NAME    = COSMOS 2599 (RODNIK-S 24)
OBJECT_ID      = 2025-273C
CENTER_NAME    = EARTH
REF_FRAME      = TEME
TIME_SYSTEM    = UTC
MEAN_ELEMENT_THEORY = SGP/SGP4

EPOCH          = 2025-12-09T11:54:29.668608
MEAN_MOTION    = 12.41671799
ECCENTRICITY   = .0008173
INCLINATION    = 82.5025
RA_OF_ASC_NODE = 288.4783
ARG_OF_PERICENTER = 307.4246
MEAN_ANOMALY   = 52.6088

EPHEMERIS_TYPE = 0
CLASSIFICATION_TYPE = U
NORAD_CAT_ID   = 66649
ELEMENT_SET_NO = 999
REV_AT_EPOCH   = 173
BSTAR          = .13025E-3
MEAN_MOTION_DOT = .28E-6
MEAN_MOTION_DDOT = 0

CCSDS_OMM_VERS = 2.0
CREATION_DATE  = 
ORIGINATOR     = 

OBJECT_NAME    = BEE-1000
OBJECT_ID      = 2025-274A
CENTER_NAME    = EARTH
REF_FRAME      = TEME
TIME_SYSTEM    = UTC
MEAN_ELEMENT_THEORY = SGP/SGP4

EPOCH          = 2025-12-09T06:20:27.921120
MEAN_MOTION    = 14.91642041
ECCENTRICITY   = .001044
INCLINATION    = 97.7386
RA_OF_ASC_NODE = 270.5157
ARG_OF_PERICENTER = 264.9451
MEAN_ANOMALY   = 95.0576

EPHEMERIS_TYPE = 0
CLASSIFICATION_TYPE = U
NORAD_CAT_ID   = 66650
ELEMENT_SET_NO = 999
REV_AT_EPOCH   = 188
BSTAR          = .27961E-3
MEAN_MOTION_DOT = .2756E-4
MEAN_MOTION_DDOT = 0

CCSDS_OMM_VERS = 2.0
CREATION_DATE  = 
ORIGINATOR     = 

OBJECT_NAME    = 2025-274B
OBJECT_ID      = 2025-274B
CENTER_NAME    = EARTH
REF_FRAME      = TEME
TIME_SYSTEM    = UTC
MEAN_ELEMENT_THEORY = SGP/SGP4

EPOCH          = 2025-12-09T07:56:08.402784
MEAN_MOTION    = 14.91755081
ECCENTRICITY   = .0010746
INCLINATION    = 97.7381
RA_OF_ASC_NODE = 270.5817
ARG_OF_PERICENTER = 263.8603
MEAN_ANOMALY   = 96.1392

EPHEMERIS_TYPE = 0
CLASSIFICATION_TYPE = U
NORAD_CAT_ID   = 66651
ELEMENT_SET_NO = 999
REV_AT_EPOCH   = 189
BSTAR          = .57036E-3
MEAN_MOTION_DOT = .5698E-4
MEAN_MOTION_DDOT = 0

