STARLINK-35908          
1 66639U 25271Y   25343.50002315 -.01980495  00000+0 -23333-1 0  9992
2 66639  53.1590 202.8103 0000805 108.5827 213.0748 15.64059678  3723
STARLINK-35921          
1 66640U 25271Z   25343.50002315 -.01970229  00000+0 -23202-1 0  9993
2 66640  53.1590 202.8061 0000840 107.4946 216.0837 15.64051814  3723
STARLINK-35923          
1 66641U 25271AA  25343.50002315 -.01971216  00000+0 -23215-1 0  9995
2 66641  53.1592 202.7895 0000804 109.3972 221.8464 15.64053203  3724
STARLINK-35926          
1 66642U 25271AB  25343.50002315 -.01966992  00000+0 -23161-1 0  9991
2 66642  53.1591 202.7944 0000659 103.1663 226.1586 15.64051521  3483
STARLINK-35918          
1 66643U 25271AC  25343.50002315 -.01966949  00000+0 -23160-1 0  9993
2 66643  53.1593 202.8026 0000861 108.4293 217.0648 15.64050306  3725
STARLINK-35938          
1 66644U 25271AD  25343.50002315 -.01977417  00000+0 -23294-1 0  9994
2 66644  53.1589 202.7983 0000827 109.7679 217.6413 15.64057013  3724
SHENZHOU-22             
1 66645U 25272A   25343.19148786  .00030369  00000+0  38224-3 0  9998
2 66645  41.4680  38.2458 0008971   2.1097 357.9778 15.58940873263003
COSMOS 2597 (RODNIK-S *)
1 66647U 25273A   25343.49306286  .00000040  00000+0  22199-3 0  9992
2 66647  82.4984 288.4651 0007960 296.9217  63.1048 12.41951240  1730
COSMOS 2598 (RODNIK-S *)
1 66648U 25273B   25343.48800391 -.00000002  00000+0 -83492-4 0  9992
2 66648  82.5025 288.4721 0007264 259.0803 100.9459 12.42861553  1738
COSMOS 2599 (RODNIK-S *)
1 66649U 25273C   25343.49617672  .00000028  00000+0  13025-3 0  9992
2 66649  82.5025 288.4783 0008173 307.4246  52.6088 12.41671799  1737
BEE-1000                
1 66650U 25274A   25343.26421205  .00002756  00000+0  27961-3 0  9999
2 66650  97.7386 270.5157 0010440 264.9451  95.0576 14.91642041  1883
2025-274B               
1 66651U 25274B   25343.33065281  .00005698  00000+0  57036-3 0  9990
2 66651  97.7381 270.5817 0010746 263.8603  96.1392 14.91755081  1896
